$$SOE
2459580.500000000, A.D. 2022-Jan-01 00:00:00.0000, 1.598807581049396E+08, -4.451545822508316E+08, 1.760679378806347E+07,
2459587.500000000, A.D. 2022-Jan-08 00:00:00.0000, 1.679928958335276E+08, -4.434375382457679E+08, 1.692003035037488E+07,
2459594.500000000, A.D. 2022-Jan-15 00:00:00.0000, 1.760287684770221E+08, -4.415189349013920E+08, 1.622557082867330E+07,
2459601.500000000, A.D. 2022-Jan-22 00:00:00.0000, 1.839852820224416E+08, -4.394010302689900E+08, 1.552378143096688E+07,
2459608.500000000, A.D. 2022-Jan-29 00:00:00.0000, 1.918593858814362E+08, -4.370860540183387E+08, 1.481502375550172E+07,
2459615.500000000, A.D. 2022-Feb-05 00:00:00.0000, 1.996480668325306E+08, -4.345762093417425E+08, 1.409965529162210E+07,
2459622.500000000, A.D. 2022-Feb-12 00:00:00.0000, 2.073483452802375E+08, -4.318736759704013E+08, 1.337802962816486E+07,
2459629.500000000, A.D. 2022-Feb-19 00:00:00.0000, 2.149572724965089E+08, -4.289806119328368E+08, 1.265049668509123E+07,
2459636.500000000, A.D. 2022-Feb-26 00:00:00.0000, 2.224719275234981E+08, -4.258991547776655E+08, 1.191740303006527E+07,
2459643.500000000, A.D. 2022-Mar-05 00:00:00.0000, 2.298894138876140E+08, -4.226314228770345E+08, 1.117909221534422E+07,
2459650.500000000, A.D. 2022-Mar-12 00:00:00.0000, 2.372068563378884E+08, -4.191795168761717E+08, 1.043590510958999E+07,
2459657.500000000, A.D. 2022-Mar-19 00:00:00.0000, 2.444213976713227E+08, -4.155455212610545E+08, 9.688180220661461E+06,
2459664.500000000, A.D. 2022-Mar-26 00:00:00.0000, 2.515301956596134E+08, -4.117315060503082E+08, 8.936254007096410E+06,
2459671.500000000, A.D. 2022-Apr-02 00:00:00.0000, 2.585304201377539E+08, -4.077395286674863E+08, 8.180461167750418E+06,
2459678.500000000, A.D. 2022-Apr-09 00:00:00.0000, 2.654192505202462E+08, -4.035716359899155E+08, 7.421134885394126E+06,
2459685.500000000, A.D. 2022-Apr-16 00:00:00.0000, 2.721938740963787E+08, -3.992298659224184E+08, 6.658607045491785E+06,
2459692.500000000, A.D. 2022-Apr-23 00:00:00.0000, 2.788514838296756E+08, -3.947162474151392E+08, 5.893208635769665E+06,
2459699.500000000, A.D. 2022-Apr-30 00:00:00.0000, 2.853892737843350E+08, -3.900328011737493E+08, 5.125270315121025E+06,
2459706.500000000, A.D. 2022-May-07 00:00:00.0000, 2.918044352343268E+08, -3.851815430373974E+08, 4.355122710005283E+06,
2459713.500000000, A.D. 2022-May-14 00:00:00.0000, 2.980941548385078E+08, -3.801644869883952E+08, 3.583096559640557E+06,
2459720.500000000, A.D. 2022-May-21 00:00:00.0000, 3.042556128450978E+08, -3.749836470376914E+08, 2.809522958843946E+06,
2459727.500000000, A.D. 2022-May-28 00:00:00.0000, 3.102859808417141E+08, -3.696410389475414E+08, 2.034733664626315E+06,
2459734.500000000, A.D. 2022-Jun-04 00:00:00.0000, 3.161824193243616E+08, -3.641386821073250E+08, 1.259061416144788E+06,
2459741.500000000, A.D. 2022-Jun-11 00:00:00.0000, 3.219420752273864E+08, -3.584786015649265E+08, 4.828402556205690E+05,
2459748.500000000, A.D. 2022-Jun-18 00:00:00.0000, 3.275620794504774E+08, -3.526628302065020E+08, -2.935941514650434E+05,
2459755.500000000, A.D. 2022-Jun-25 00:00:00.0000, 3.330395444088503E+08, -3.466934111245746E+08, -1.069904201533675E+06,
2459762.500000000, A.D. 2022-Jul-02 00:00:00.0000, 3.383715617368777E+08, -3.405724002467309E+08, -1.845750060367182E+06,
2459769.500000000, A.D. 2022-Jul-09 00:00:00.0000, 3.435552005321691E+08, -3.343018690544198E+08, -2.620789413420156E+06,
2459776.500000000, A.D. 2022-Jul-16 00:00:00.0000, 3.485875060824929E+08, -3.278839063166654E+08, -3.394677164540008E+06,
2459783.500000000, A.D. 2022-Jul-23 00:00:00.0000, 3.534654968743542E+08, -3.213206187698947E+08, -4.167064874164715E+06,
2459790.500000000, A.D. 2022-Jul-30 00:00:00.0000, 3.581861599632636E+08, -3.146141341061522E+08, -4.937600217979789E+06,
2459797.500000000, A.D. 2022-Aug-06 00:00:00.0000, 3.627464483008474E+08, -3.077666056290746E+08, -5.705926742350936E+06,
2459804.500000000, A.D. 2022-Aug-13 00:00:00.0000, 3.671432791935456E+08, -3.007802158318565E+08, -6.471683614936277E+06,
2459811.500000000, A.D. 2022-Aug-20 00:00:00.0000, 3.713735323219573E+08, -2.936571794105867E+08, -7.234505266585410E+06,
2459818.500000000, A.D. 2022-Aug-27 00:00:00.0000, 3.754340473876387E+08, -2.863997464500495E+08, -7.994020989071235E+06,
2459825.500000000, A.D. 2022-Sep-03 00:00:00.0000, 3.793216216346251E+08, -2.790102059037606E+08, -8.749854519376695E+06,
2459832.500000000, A.D. 2022-Sep-10 00:00:00.0000, 3.830330073359748E+08, -2.714908893566898E+08, -9.501623615831092E+06,
2459839.500000000, A.D. 2022-Sep-17 00:00:00.0000, 3.865649092755395E+08, -2.638441750861913E+08, -1.024893962800568E+07,
2459846.500000000, A.D. 2022-Sep-24 00:00:00.0000, 3.899139822863373E+08, -2.560724924870564E+08, -1.099140706924108E+07,
2459853.500000000, A.D. 2022-Oct-01 00:00:00.0000, 3.930768290866161E+08, -2.481783268987285E+08, -1.172862321490936E+07,
2459860.500000000, A.D. 2022-Oct-08 00:00:00.0000, 3.960499988232779E+08, -2.401642243291373E+08, -1.246017772035174E+07,
2459867.500000000, A.D. 2022-Oct-15 00:00:00.0000, 3.988299853951772E+08, -2.320327948948523E+08, -1.318565207420066E+07,
2459874.500000000, A.D. 2022-Oct-22 00:00:00.0000, 4.014132233790411E+08, -2.237867166829169E+08, -1.390461882382865E+07,
2459881.500000000, A.D. 2022-Oct-29 00:00:00.0000, 4.037960840588878E+08, -2.154287426493089E+08, -1.461664101333612E+07,
2459888.500000000, A.D. 2022-Nov-05 00:00:00.0000, 4.059748736628954E+08, -2.069617078343482E+08, -1.532127180190080E+07,
2459895.500000000, A.D. 2022-Nov-12 00:00:00.0000, 4.079458318503196E+08, -1.983885356516210E+08, -1.601805397784191E+07,
2459902.500000000, A.D. 2022-Nov-19 00:00:00.0000, 4.097051297380856E+08, -1.897122442307333E+08, -1.670651937947025E+07,
2459909.500000000, A.D. 2022-Nov-26 00:00:00.0000, 4.112488677396910E+08, -1.809359532392823E+08, -1.738618827829807E+07,
2459916.500000000, A.D. 2022-Dec-03 00:00:00.0000, 4.125730733948131E+08, -1.720628912255950E+08, -1.805656873978692E+07,
2459923.500000000, A.D. 2022-Dec-10 00:00:00.0000, 4.136736992498863E+08, -1.630964034958365E+08, -1.871715596326163E+07,
2459930.500000000, A.D. 2022-Dec-17 00:00:00.0000, 4.145466208316875E+08, -1.540399605854050E+08, -1.936743160428682E+07,
2459937.500000000, A.D. 2022-Dec-24 00:00:00.0000, 4.151876348429950E+08, -1.448971674281768E+08, -2.000686309395668E+07,
2459944.500000000, A.D. 2022-Dec-31 00:00:00.0000, 4.155924579599171E+08, -1.356717731560573E+08, -2.063490297818632E+07,
2459951.500000000, A.D. 2023-Jan-07 00:00:00.0000, 4.157567263796716E+08, -1.263676806084678E+08, -2.125098820864364E+07,
2459958.500000000, A.D. 2023-Jan-14 00:00:00.0000, 4.156759941837223E+08, -1.169889551013679E+08, -2.185453916338149E+07,
2459965.500000000, A.D. 2023-Jan-21 00:00:00.0000, 4.153457299057978E+08, -1.075398356796620E+08, -2.244495859664045E+07,
2459972.500000000, A.D. 2023-Jan-28 00:00:00.0000, 4.147613150082342E+08, -9.802474910002488E+07, -2.302163086966398E+07,
2459979.500000000, A.D. 2023-Feb-04 00:00:00.0000, 4.139180441012009E+08, -8.844832356803931E+07, -2.358392119542405E+07,
2459986.500000000, A.D. 2023-Feb-11 00:00:00.0000, 4.128111251636796E+08, -7.881540247845273E+07, -2.413117474817462E+07,
2459993.500000000, A.D. 2023-Feb-18 00:00:00.0000, 4.114356797671334E+08, -6.913105904204264E+07, -2.466271569955129E+07,
2460000.500000000, A.D. 2023-Feb-25 00:00:00.0000, 4.097867436380445E+08, -5.940061202629718E+07, -2.517784621928395E+07,
2460007.500000000, A.D. 2023-Mar-04 00:00:00.0000, 4.078592677440016E+08, -4.962964266071361E+07, -2.567584544960293E+07,
2460014.500000000, A.D. 2023-Mar-11 00:00:00.0000, 4.056481200247363E+08, -3.982401277883051E+07, -2.615596845771663E+07,
2460021.500000000, A.D. 2023-Mar-18 00:00:00.0000, 4.031480879203432E+08, -2.998988432151335E+07, -2.661744517722343E+07,
2460028.500000000, A.D. 2023-Mar-25 00:00:00.0000, 4.003538820191088E+08, -2.013374032610672E+07, -2.705947936436089E+07,
2460035.500000000, A.D. 2023-Apr-01 00:00:00.0000, 3.972601413833016E+08, -1.026240708640807E+07, -2.748124758022322E+07,
2460042.500000000, A.D. 2023-Apr-08 00:00:00.0000, 3.938614400909134E+08, -3.830763349140007E+05, -2.788189804776058E+07,
2460049.500000000, A.D. 2023-Apr-15 00:00:00.0000, 3.901522928368971E+08, 9.496671369739950E+06, -2.826054926679699E+07,
2460056.500000000, A.D. 2023-Apr-22 00:00:00.0000, 3.861271616069997E+08, 1.936883891901495E+07, -2.861628881191406E+07,
2460063.500000000, A.D. 2023-Apr-29 00:00:00.0000, 3.817804663848036E+08, 2.922498277297605E+07, -2.894817239132652E+07,
2460070.500000000, A.D. 2023-May-06 00:00:00.0000, 3.771065983888914E+08, 3.905618263644990E+07, -2.925522287351058E+07,
2460077.500000000, A.D. 2023-May-13 00:00:00.0000, 3.720999351567466E+08, 4.885300974239418E+07, -2.953642928200715E+07,
2460084.500000000, A.D. 2023-May-20 00:00:00.0000, 3.667548580409271E+08, 5.860549320713779E+07, -2.979074584067974E+07,
2460091.500000000, A.D. 2023-May-27 00:00:00.0000, 3.610657726840698E+08, 6.830308440186879E+07, -3.001709111444010E+07,
2460098.500000000, A.D. 2023-Jun-03 00:00:00.0000, 3.550271329495592E+08, 7.793461936447412E+07, -3.021434727831971E+07,
2460105.500000000, A.D. 2023-Jun-10 00:00:00.0000, 3.486334688017623E+08, 8.748827926793522E+07, -3.038135955356856E+07,
2460112.500000000, A.D. 2023-Jun-17 00:00:00.0000, 3.418794187507280E+08, 9.695154895589124E+07, -3.051693586586218E+07,
2460119.500000000, A.D. 2023-Jun-24 00:00:00.0000, 3.347597677666476E+08, 1.063111737220445E+08, -3.061984680014390E+07,
2460126.500000000, A.D. 2023-Jul-01 00:00:00.0000, 3.272694915609978E+08, 1.155531153454230E+08, -3.068882586563453E+07,
2460133.500000000, A.D. 2023-Jul-08 00:00:00.0000, 3.194038062656794E+08, 1.246625084730070E+08, -3.072256991713565E+07,
2460140.500000000, A.D. 2023-Jul-15 00:00:00.0000, 3.111582230156825E+08, 1.336236148934526E+08, -3.071973992583032E+07,
2460147.500000000, A.D. 2023-Jul-22 00:00:00.0000, 3.025286118061482E+08, 1.424197751549744E+08, -3.067896259975367E+07,
$$EOE